{"type":"FeatureCollection","features":[{"type":"Feature","properties":{"shapeName":"Osijek-Baranja","shapeISO":"HR-14"},"geometry":{"type":"Polygon","coordinates":[[[17.8854,45.4746],[17.8986,45.4534],[17.9425,45.4503],[18.0254,45.4009],[18.0915,45.4032],[18.1116,45.3836],[18.0692,45.3528],[18.1097,45.3158],[18.0729,45.2778],[18.085,45.2644],[18.1791,45.2467],[18.2192,45.2208],[18.357,45.2509],[18.4423,45.2145],[18.5136,45.2103],[18.5322,45.2373],[18.5015,45.2187],[18.5147,45.2934],[18.633,45.3193],[18.6207,45.355],[18.6417,45.3612],[18.64,45.3963],[18.732,45.4197],[18.7732,45.4061],[18.7969,45.4178],[18.7956,45.4622],[18.841,45.4505],[18.8477,45.4855],[18.8758,45.4892],[18.9503,45.4344],[18.9906,45.4357],[19.0002,45.4943],[19.0823,45.4883],[19.1023,45.5055],[19.0211,45.5572],[18.9504,45.534],[18.8892,45.5661],[18.9134,45.5954],[18.9058,45.6161],[18.9633,45.6739],[18.9086,45.7052],[18.8887,45.7753],[18.8541,45.7929],[18.8564,45.8564],[18.825,45.9001],[18.8143,45.9088],[18.8089,45.8795],[18.7911,45.8782],[18.7048,45.918],[18.6595,45.9169],[18.665,45.8994],[18.6413,45.889],[18.655,45.8742],[18.6278,45.8734],[18.6237,45.8399],[18.575,45.8004],[18.5224,45.7827],[18.4907,45.7947],[18.4822,45.7655],[18.4451,45.7605],[18.4469,45.7371],[18.4076,45.7397],[18.3642,45.7729],[18.3394,45.7472],[18.1909,45.7879],[18.1682,45.7763],[18.1247,45.7896],[18.0819,45.7645],[17.9959,45.7957],[17.9021,45.792],[17.9318,45.7306],[17.9956,45.7193],[18.01,45.6607],[18.0695,45.6449],[18.0733,45.6282],[18.0441,45.6273],[17.9471,45.5329],[17.9411,45.5071],[17.8883,45.4778],[17.8854,45.4746]]]}},{"type":"Feature","properties":{"shapeName":"Vukovar-Syrmia","shapeISO":"HR-16"},"geometry":{"type":"Polygon","coordinates":[[[18.5322,45.2373],[18.5724,45.2294],[18.5642,45.1974],[18.5079,45.1476],[18.499,45.1101],[18.5741,45.0666],[18.5691,45.0947],[18.613,45.0804],[18.6303,45.0952],[18.6061,45.0657],[18.6546,45.056],[18.6605,45.0897],[18.6803,45.0915],[18.6873,45.0758],[18.6679,45.0621],[18.7377,45.0174],[18.7292,44.9939],[18.7966,44.9897],[18.7858,44.9663],[18.8041,44.9389],[18.7505,44.9406],[18.773,44.9192],[18.7643,44.9053],[18.8561,44.8531],[19.0191,44.8552],[18.9924,44.8939],[18.998,44.9156],[19.0323,44.9225],[19.0686,44.9012],[19.1565,44.9529],[19.1398,44.9803],[19.0519,44.9773],[19.1027,45.0107],[19.1059,45.0792],[19.0768,45.1137],[19.0866,45.1454],[19.1421,45.1299],[19.1945,45.1789],[19.1706,45.1997],[19.2866,45.1711],[19.2803,45.2091],[19.3189,45.2076],[19.342,45.174],[19.4186,45.1658],[19.4471,45.1963],[19.4206,45.2335],[19.2849,45.2373],[19.1154,45.2926],[19.0928,45.3351],[18.9716,45.3772],[18.9762,45.3943],[19.0234,45.4031],[19.0253,45.4249],[18.9914,45.4419],[18.9503,45.4344],[18.8758,45.4892],[18.8477,45.4855],[18.841,45.4505],[18.7956,45.4622],[18.7969,45.4178],[18.7732,45.4061],[18.732,45.4197],[18.64,45.3963],[18.6417,45.3612],[18.6207,45.355],[18.633,45.3193],[18.5147,45.2934],[18.5015,45.2187],[18.5234,45.2367],[18.5322,45.2373]]]}},{"type":"Feature","properties":{"shapeName":"Brod-Posavina","shapeISO":"HR-12"},"geometry":{"type":"Polygon","coordinates":[[[18.0734,45.27],[17.8937,45.2888],[17.8831,45.2572],[17.8311,45.217],[17.7855,45.2187],[17.7803,45.1908],[17.743,45.1842],[17.6998,45.2021],[17.7196,45.2133],[17.6927,45.2727],[17.5689,45.2815],[17.415,45.3871],[17.3375,45.3841],[17.316,45.3657],[17.2343,45.3902],[17.1811,45.3489],[17.1929,45.3266],[17.169,45.314],[17.1893,45.2935],[17.1615,45.2924],[17.0765,45.2205],[17.1831,45.1464],[17.2449,45.146],[17.2748,45.1893],[17.3633,45.1378],[17.415,45.135],[17.4503,45.1597],[17.4507,45.1271],[17.4924,45.1354],[17.4861,45.1095],[17.5308,45.1091],[17.548,45.1301],[17.5553,45.1089],[17.5986,45.1061],[17.6699,45.1336],[17.8515,45.0443],[17.9362,45.0812],[17.9328,45.1079],[18.0044,45.1519],[18.038,45.1255],[18.0714,45.1406],[18.0858,45.1188],[18.0713,45.1074],[18.1214,45.0802],[18.1992,45.0792],[18.2217,45.0979],[18.2099,45.1224],[18.253,45.1393],[18.3205,45.1013],[18.4254,45.1076],[18.4741,45.0636],[18.5261,45.0607],[18.5339,45.0436],[18.5509,45.0729],[18.4955,45.1249],[18.5421,45.1917],[18.5642,45.1974],[18.5724,45.2294],[18.5322,45.2373],[18.5219,45.2139],[18.4763,45.2099],[18.357,45.2509],[18.2192,45.2208],[18.1791,45.2467],[18.085,45.2644],[18.0734,45.27]]]}},{"type":"Feature","properties":{"shapeName":"Virovitica-Podravina","shapeISO":"HR-10"},"geometry":{"type":"Polygon","coordinates":[[[17.9021,45.792],[17.8653,45.767],[17.8263,45.81],[17.6633,45.8382],[17.6276,45.8979],[17.5701,45.9358],[17.4378,45.9504],[17.4259,45.9273],[17.3829,45.9476],[17.3515,45.9413],[17.3423,45.9596],[17.3905,45.9582],[17.3584,45.9643],[17.3755,45.9687],[17.3669,45.9923],[17.3567,45.9736],[17.3299,45.9944],[17.3367,45.9804],[17.313,45.9665],[17.3199,45.9912],[17.1901,45.9814],[17.1139,45.9094],[17.1315,45.9036],[17.12,45.8842],[17.1635,45.8732],[17.1968,45.8362],[17.2767,45.8117],[17.2773,45.7877],[17.3148,45.7716],[17.3166,45.7526],[17.3553,45.7598],[17.3474,45.7222],[17.3771,45.721],[17.3873,45.7014],[17.4439,45.73],[17.4477,45.7089],[17.4943,45.6988],[17.4243,45.5806],[17.4872,45.5602],[17.5259,45.581],[17.6245,45.5187],[17.7982,45.4833],[17.7788,45.4744],[17.8535,45.4887],[17.8854,45.4746],[17.9411,45.5071],[17.9471,45.5329],[18.0441,45.6273],[18.0708,45.6211],[18.0695,45.6449],[18.01,45.6607],[17.9956,45.7193],[17.9318,45.7306],[17.9117,45.767],[17.9021,45.792]]]}},{"type":"Feature","properties":{"shapeName":"Požega-Slavonia","shapeISO":"HR-11"},"geometry":{"type":"Polygon","coordinates":[[[17.8854,45.4746],[17.8535,45.4887],[17.7788,45.4744],[17.7982,45.4833],[17.6245,45.5187],[17.5259,45.581],[17.4872,45.5602],[17.4352,45.5789],[17.4478,45.5672],[17.4371,45.5318],[17.4115,45.5111],[17.3584,45.5267],[17.2334,45.5116],[17.1749,45.5394],[17.1595,45.5097],[17.1164,45.5234],[17.0882,45.505],[17.0539,45.522],[16.9981,45.5102],[16.9565,45.5446],[16.9289,45.5144],[16.9571,45.4574],[17.0143,45.4499],[17.0203,45.4253],[17.066,45.4418],[17.0512,45.3961],[17.1211,45.3734],[17.1326,45.346],[17.1811,45.3489],[17.2343,45.3902],[17.316,45.3657],[17.3969,45.3928],[17.5689,45.2815],[17.6927,45.2727],[17.7196,45.2133],[17.6998,45.2021],[17.7596,45.1824],[17.7913,45.2013],[17.7855,45.2187],[17.8311,45.217],[17.8831,45.2572],[17.8937,45.2888],[18.0734,45.27],[18.1102,45.3047],[18.0687,45.3453],[18.1078,45.3666],[18.0915,45.4032],[18.0254,45.4009],[17.8865,45.4714],[17.8854,45.4746]]]}},{"type":"Feature","properties":{"shapeName":"Sisak-Moslavina","shapeISO":"HR-03"},"geometry":{"type":"Polygon","coordinates":[[[17.1811,45.3489],[17.1326,45.346],[17.1211,45.3734],[17.0512,45.3961],[17.066,45.4418],[17.0203,45.4253],[17.0022,45.456],[16.9133,45.4706],[16.893,45.5027],[16.8624,45.5099],[16.8553,45.5512],[16.8088,45.5674],[16.7944,45.6226],[16.7484,45.6196],[16.6577,45.6704],[16.6094,45.6703],[16.585,45.6265],[16.4992,45.601],[16.465,45.567],[16.3895,45.6301],[16.3344,45.6216],[16.342,45.6468],[16.2431,45.5912],[16.233,45.6079],[16.1997,45.6059],[16.1808,45.6391],[16.1554,45.6373],[16.0661,45.5686],[16.102,45.5385],[16.1086,45.5045],[16.068,45.5056],[16.0611,45.4654],[16.0169,45.4889],[15.9468,45.4696],[15.8701,45.5085],[15.8256,45.4885],[15.8281,45.4606],[15.8493,45.46],[15.8428,45.425],[15.8159,45.4051],[15.8297,45.3919],[15.7769,45.3879],[15.7676,45.3721],[15.8071,45.3117],[15.7851,45.2687],[15.8005,45.2445],[15.8572,45.2168],[15.9211,45.2279],[15.9268,45.2105],[15.9779,45.2306],[16.0147,45.218],[16.0304,45.2011],[16.0157,45.1799],[16.0487,45.1787],[16.09,45.1043],[16.1722,45.0725],[16.1937,45.031],[16.2691,45.0169],[16.2888,44.9957],[16.3544,45.0029],[16.4029,45.0985],[16.3944,45.1127],[16.4633,45.1425],[16.4915,45.2082],[16.53,45.2266],[16.5985,45.2313],[16.6685,45.202],[16.7324,45.2075],[16.8192,45.1848],[16.8437,45.1942],[16.8351,45.2192],[16.8542,45.2046],[16.8797,45.2203],[16.8645,45.2314],[16.8837,45.2277],[16.87,45.2408],[16.8934,45.2483],[16.8828,45.257],[16.9053,45.2509],[16.9321,45.2763],[16.9543,45.256],[16.9378,45.2278],[16.9761,45.2288],[16.9706,45.2514],[16.9923,45.222],[17.0221,45.2359],[17.0106,45.2142],[17.038,45.2257],[17.0523,45.2009],[17.141,45.1635],[17.0765,45.2205],[17.1615,45.2924],[17.1893,45.2935],[17.169,45.314],[17.1929,45.3266],[17.183,45.3429],[17.1811,45.3489]]]}},{"type":"Feature","properties":{"shapeName":"Bjelovar-Bilogora","shapeISO":"HR-07"},"geometry":{"type":"Polygon","coordinates":[[[17.12,45.8842],[17.0661,45.908],[17.0514,45.944],[16.9857,45.9354],[16.9934,45.9635],[16.9529,45.9943],[16.8978,45.9957],[16.9091,46.0342],[16.867,46.0656],[16.8723,46.0817],[16.8398,46.0905],[16.8045,46.0525],[16.7748,46.0623],[16.7208,46.0401],[16.6976,45.9719],[16.7032,45.848],[16.6501,45.8285],[16.6197,45.8459],[16.5978,45.7884],[16.5137,45.7997],[16.495,45.774],[16.5225,45.7605],[16.489,45.7233],[16.57,45.7071],[16.588,45.6772],[16.6647,45.6689],[16.7484,45.6196],[16.7944,45.6226],[16.8088,45.5674],[16.8553,45.5512],[16.8624,45.5099],[16.893,45.5027],[16.9133,45.4706],[16.9383,45.4777],[16.9289,45.5144],[16.947,45.5441],[16.9981,45.5102],[17.0539,45.522],[17.0882,45.505],[17.1057,45.5234],[17.1595,45.5097],[17.1749,45.5394],[17.2334,45.5116],[17.4229,45.5168],[17.4478,45.5672],[17.4206,45.5975],[17.4539,45.6106],[17.4479,45.6318],[17.4943,45.6988],[17.4477,45.7089],[17.4439,45.73],[17.3873,45.7014],[17.3771,45.721],[17.3474,45.7222],[17.3553,45.7598],[17.3166,45.7526],[17.3148,45.7716],[17.2773,45.7877],[17.2767,45.8117],[17.1968,45.8362],[17.1635,45.8732],[17.12,45.8842]]]}},{"type":"Feature","properties":{"shapeName":"Međimurje","shapeISO":"HR-20"},"geometry":{"type":"Polygon","coordinates":[[[16.8532,46.3535],[16.8008,46.3853],[16.7187,46.3915],[16.674,46.4482],[16.6575,46.4461],[16.6632,46.4597],[16.5159,46.481],[16.4641,46.5214],[16.3704,46.5437],[16.3804,46.5525],[16.2416,46.4984],[16.2724,46.4153],[16.3076,46.3975],[16.2997,46.3783],[16.3597,46.3209],[16.4643,46.3261],[16.5154,46.3085],[16.5622,46.3283],[16.7069,46.3289],[16.7428,46.3182],[16.7453,46.3005],[16.7993,46.3084],[16.813,46.2907],[16.8472,46.3447],[16.8532,46.3535]]]}},{"type":"Feature","properties":{"shapeName":"Koprivnica-Križevci","shapeISO":"HR-06"},"geometry":{"type":"Polygon","coordinates":[[[17.2949,45.9866],[17.3042,46.0021],[17.258,46.011],[17.2963,46.0285],[17.2542,46.03],[17.271,46.0567],[17.2016,46.0774],[17.2334,46.0979],[17.1759,46.1085],[17.1865,46.1332],[17.1593,46.1697],[16.9731,46.2248],[16.9732,46.2427],[16.8861,46.281],[16.8627,46.3552],[16.836,46.3406],[16.8479,46.3329],[16.813,46.2907],[16.7611,46.3134],[16.7497,46.2527],[16.6841,46.2052],[16.5803,46.202],[16.5545,46.1935],[16.5471,46.1633],[16.4981,46.1688],[16.4637,46.1339],[16.4147,46.1462],[16.374,46.1301],[16.3785,46.1136],[16.3435,46.0773],[16.352,46.0174],[16.4213,46.0062],[16.4626,45.9775],[16.4658,45.9494],[16.5039,45.9687],[16.5976,45.9217],[16.6981,45.9198],[16.7208,46.0401],[16.7748,46.0623],[16.8045,46.0525],[16.8398,46.0905],[16.8723,46.0817],[16.867,46.0656],[16.9091,46.0342],[16.8978,45.9957],[16.9863,45.9751],[16.9857,45.9354],[17.0514,45.944],[17.0661,45.908],[17.1073,45.8862],[17.1315,45.9036],[17.1151,45.9158],[17.1901,45.9814],[17.2891,45.9843],[17.2949,45.9866]]]}},{"type":"Feature","properties":{"shapeName":"Varaždin","shapeISO":"HR-05"},"geometry":{"type":"Polygon","coordinates":[[[16.2997,46.3783],[16.189,46.3778],[16.146,46.4051],[16.0581,46.3936],[16.0719,46.3407],[16.0363,46.3371],[16.0141,46.3088],[15.8738,46.2797],[15.879,46.2382],[15.9934,46.187],[16.0746,46.1982],[16.1449,46.1816],[16.2002,46.2108],[16.19,46.1928],[16.2326,46.1896],[16.2498,46.157],[16.2356,46.087],[16.2769,46.0448],[16.2755,46.0214],[16.3053,46.0097],[16.3487,46.0323],[16.3444,46.0852],[16.3785,46.1136],[16.374,46.1301],[16.4147,46.1462],[16.4637,46.1339],[16.4823,46.1625],[16.5471,46.1633],[16.5545,46.1935],[16.588,46.2045],[16.6764,46.2016],[16.7497,46.2527],[16.7619,46.2816],[16.7428,46.3182],[16.7069,46.3289],[16.5622,46.3283],[16.5154,46.3085],[16.4643,46.3261],[16.3597,46.3209],[16.3082,46.3755],[16.2997,46.3783]]]}},{"type":"Feature","properties":{"shapeName":"Krapina-Zagorje","shapeISO":"HR-02"},"geometry":{"type":"Polygon","coordinates":[[[15.8719,46.2782],[15.7915,46.2593],[15.7996,46.2377],[15.768,46.2088],[15.6814,46.2274],[15.6472,46.2172],[15.6489,46.1912],[15.6042,46.1627],[15.6211,46.0894],[15.7325,46.0445],[15.7004,45.9994],[15.7155,45.9702],[15.7748,45.9623],[15.8097,45.9928],[15.9218,45.9527],[15.9528,45.9287],[15.9546,45.9038],[16.114,45.9685],[16.1539,45.9675],[16.1568,45.9947],[16.2044,45.9957],[16.1765,46.0199],[16.2183,46.0196],[16.2076,46.0433],[16.252,46.0695],[16.2356,46.087],[16.2498,46.157],[16.2326,46.1896],[16.19,46.1928],[16.195,46.2132],[16.1449,46.1816],[16.0746,46.1982],[15.9934,46.187],[15.879,46.2382],[15.8719,46.2782]]]}},{"type":"Feature","properties":{"shapeName":"City of Zagreb","shapeISO":"HR-21"},"geometry":{"type":"Polygon","coordinates":[[[15.9546,45.9038],[15.8219,45.8385],[15.8429,45.7893],[15.8241,45.78],[15.8843,45.7505],[15.8604,45.7217],[15.8078,45.7382],[15.7736,45.7077],[15.7772,45.6899],[15.8729,45.6568],[15.9196,45.6142],[15.9475,45.6294],[15.9842,45.7176],[16.0177,45.721],[16.0252,45.7545],[16.126,45.8015],[16.1979,45.7775],[16.2003,45.8204],[16.2269,45.8417],[16.2006,45.8887],[16.1784,45.8923],[16.1552,45.969],[15.971,45.9138],[15.9546,45.9038]]]}},{"type":"Feature","properties":{"shapeName":"Zagreb County","shapeISO":"HR-01"},"geometry":{"type":"Polygon","coordinates":[[[16.6094,45.6703],[16.57,45.7071],[16.489,45.7233],[16.5225,45.7605],[16.495,45.774],[16.5137,45.7997],[16.6092,45.7928],[16.6017,45.8183],[16.6197,45.8459],[16.6501,45.8285],[16.7032,45.848],[16.6981,45.9198],[16.5976,45.9217],[16.5039,45.9687],[16.4658,45.9494],[16.4626,45.9775],[16.4213,46.0062],[16.3417,46.0272],[16.3053,46.0097],[16.2755,46.0214],[16.252,46.0695],[16.2076,46.0433],[16.2183,46.0196],[16.1765,46.0199],[16.2044,45.9957],[16.1568,45.9947],[16.1784,45.8923],[16.2006,45.8887],[16.2268,45.8448],[16.2003,45.8204],[16.1999,45.7795],[16.126,45.8015],[16.0384,45.7624],[16.0177,45.721],[15.9659,45.6953],[15.9475,45.6294],[15.9196,45.6142],[15.8729,45.6568],[15.7772,45.6899],[15.7736,45.7077],[15.8078,45.7382],[15.8604,45.7217],[15.8843,45.7505],[15.8241,45.78],[15.8429,45.7893],[15.8219,45.8385],[15.9546,45.9038],[15.9528,45.9287],[15.8097,45.9928],[15.7748,45.9623],[15.7066,45.9753],[15.7077,45.9231],[15.6795,45.9045],[15.6921,45.8852],[15.6775,45.8689],[15.7094,45.8465],[15.6423,45.8204],[15.5726,45.8536],[15.5594,45.8343],[15.5386,45.8476],[15.528,45.8238],[15.4659,45.8184],[15.47,45.7953],[15.3995,45.7921],[15.3228,45.7531],[15.3985,45.6937],[15.4326,45.695],[15.4755,45.6512],[15.5119,45.6429],[15.514,45.6118],[15.5686,45.5896],[15.6153,45.6203],[15.6614,45.5974],[15.6962,45.6023],[15.7328,45.5691],[15.7504,45.6037],[15.7343,45.5602],[15.7871,45.5383],[15.7845,45.522],[15.8666,45.546],[15.8688,45.5301],[15.9066,45.5278],[15.9166,45.4865],[15.9468,45.4696],[16.0169,45.4889],[16.0611,45.4654],[16.068,45.5056],[16.1076,45.5019],[16.102,45.5385],[16.0661,45.5686],[16.1554,45.6373],[16.1808,45.6391],[16.1997,45.6059],[16.233,45.6079],[16.2431,45.5912],[16.342,45.6468],[16.3344,45.6216],[16.3895,45.6301],[16.465,45.567],[16.4992,45.601],[16.585,45.6265],[16.6084,45.6633],[16.6094,45.6703]]]}},{"type":"Feature","properties":{"shapeName":"Karlovac","shapeISO":"HR-04"},"geometry":{"type":"MultiPolygon","coordinates":[[[[15.9232,45.4772],[15.9205,45.5135],[15.8688,45.5301],[15.8666,45.546],[15.7845,45.522],[15.7871,45.5383],[15.7343,45.5602],[15.7504,45.6037],[15.7328,45.5691],[15.6962,45.6023],[15.6614,45.5974],[15.6153,45.6203],[15.5629,45.5901],[15.514,45.6118],[15.5119,45.6429],[15.4755,45.6512],[15.4461,45.6867],[15.3985,45.6937],[15.3243,45.7485],[15.3297,45.7625],[15.3,45.7543],[15.2568,45.7188],[15.2998,45.686],[15.3109,45.6976],[15.3228,45.6739],[15.3187,45.6952],[15.3571,45.714],[15.3481,45.6711],[15.3692,45.6934],[15.406,45.6503],[15.3438,45.646],[15.277,45.6038],[15.2989,45.5836],[15.3021,45.5356],[15.3855,45.4866],[15.3458,45.4563],[15.2772,45.4659],[15.2431,45.4527],[15.1781,45.3165],[15.1211,45.3064],[15.0969,45.2837],[15.0372,45.2999],[15.0214,45.322],[14.9878,45.3092],[14.9868,45.288],[14.9635,45.2773],[14.9849,45.2546],[14.9771,45.1543],[15.1121,45.0895],[15.2001,45.1076],[15.3799,45.009],[15.4418,44.9349],[15.518,44.9327],[15.555,44.8882],[15.5725,44.8971],[15.5278,44.9224],[15.5363,44.9413],[15.5748,44.9279],[15.6606,44.9486],[15.709,44.9176],[15.7493,44.9676],[15.7822,44.9701],[15.7864,44.994],[15.7414,45.0619],[15.791,45.115],[15.7646,45.1663],[15.8367,45.2227],[15.7851,45.2687],[15.8071,45.3117],[15.7676,45.3721],[15.7769,45.3879],[15.8297,45.3919],[15.8159,45.4051],[15.8428,45.425],[15.8493,45.46],[15.8256,45.4642],[15.8287,45.4941],[15.8701,45.5085],[15.9209,45.4755],[15.9232,45.4772]]],[[[15.3015,45.6897],[15.3032,45.6891],[15.3065,45.6912],[15.3015,45.6897]]]]}},{"type":"Feature","properties":{"shapeName":"Istria","shapeISO":"HR-18"},"geometry":{"type":"MultiPolygon","coordinates":[[[[13.7458,44.9286],[13.7501,44.9303],[13.7463,44.9335],[13.7465,44.9374],[13.742,44.94],[13.7382,44.9386],[13.7366,44.9409],[13.734,44.9409],[13.7344,44.9368],[13.7291,44.9359],[13.7317,44.9335],[13.7302,44.9308],[13.7354,44.9308],[13.7337,44.934],[13.7375,44.9339],[13.739,44.937],[13.7427,44.9365],[13.7398,44.9307],[13.7458,44.9286]]],[[[13.753,44.8878],[13.78,44.9146],[13.7352,44.9264],[13.7549,44.917],[13.7506,44.8886],[13.753,44.8878]]],[[[14.1114,45.4823],[14.0111,45.5198],[13.9746,45.5151],[13.9656,45.4962],[13.9966,45.4722],[13.9849,45.4561],[13.9146,45.4535],[13.8776,45.4251],[13.8151,45.4344],[13.7862,45.4664],[13.6753,45.4424],[13.5109,45.5053],[13.4905,45.49],[13.5562,45.3579],[13.538,45.3521],[13.5392,45.3296],[13.6145,45.314],[13.5685,45.2983],[13.6062,45.2767],[13.573,45.2644],[13.6008,45.2437],[13.5871,45.2091],[13.5989,45.2037],[13.5798,45.1979],[13.611,45.1588],[13.5967,45.1406],[13.7399,45.1291],[13.6212,45.1277],[13.6074,45.1153],[13.6413,45.0943],[13.6289,45.0633],[13.689,45.0506],[13.6903,45.0237],[13.7144,45.0216],[13.7351,44.9858],[13.7635,44.9858],[13.8146,44.9144],[13.7942,44.8905],[13.8176,44.8757],[13.8484,44.8853],[13.8368,44.8645],[13.7999,44.8768],[13.7966,44.8636],[13.8365,44.8503],[13.8337,44.8327],[13.8487,44.8467],[13.8437,44.8315],[13.8625,44.8293],[13.8467,44.8246],[13.8749,44.8209],[13.873,44.8049],[13.9026,44.8083],[13.9074,44.7684],[13.9265,44.7687],[13.9125,44.7757],[13.9244,44.8033],[13.8849,44.8243],[13.9239,44.8258],[13.9297,44.8032],[14.0034,44.8053],[13.9718,44.8206],[14.0036,44.8864],[13.9808,44.9018],[14.0266,44.9044],[14.0192,44.9164],[14.0502,44.9381],[14.0317,44.9538],[14.053,44.9475],[14.0766,44.9779],[14.0374,45.0008],[14.0391,45.0315],[14.1007,44.9732],[14.0726,44.9692],[14.0651,44.945],[14.1092,44.9717],[14.1473,44.957],[14.1718,44.9864],[14.142,45.0539],[14.163,45.0412],[14.1517,45.0787],[14.1655,45.0725],[14.1979,45.1067],[14.1693,45.1348],[14.2075,45.116],[14.2285,45.1494],[14.1956,45.165],[14.2068,45.2169],[14.1816,45.296],[14.1938,45.3251],[14.2153,45.3273],[14.1825,45.3855],[14.2064,45.4008],[14.1209,45.4432],[14.1095,45.4783],[14.1114,45.4823]]]]}},{"type":"Feature","properties":{"shapeName":"Primorje-Gorski Kotar","shapeISO":"HR-08"},"geometry":{"type":"MultiPolygon","coordinates":[[[[14.575,44.4439],[14.5445,44.4642],[14.5293,44.4558],[14.5682,44.4455],[14.575,44.4439]]],[[[14.5587,44.4933],[14.5454,44.5089],[14.5536,44.4937],[14.5587,44.4933]]],[[[14.3059,44.4973],[14.327,44.5112],[14.2878,44.5218],[14.3036,44.4987],[14.3059,44.4973]]],[[[14.324,44.5696],[14.2957,44.5925],[14.3215,44.5696],[14.324,44.5696]]],[[[14.4602,44.5448],[14.4681,44.5322],[14.4395,44.5475],[14.4597,44.5304],[14.4488,44.5245],[14.5357,44.4787],[14.5236,44.5121],[14.4638,44.546],[14.4602,44.5448]]],[[[14.5411,44.953],[14.5549,44.9577],[14.5328,44.9822],[14.4857,44.9825],[14.5328,44.9553],[14.5411,44.953]]],[[[14.627,44.9999],[14.6206,44.9774],[14.7344,44.9346],[14.7627,44.941],[14.7533,44.9695],[14.8075,44.9628],[14.8015,44.9849],[14.8205,44.971],[14.7438,45.0343],[14.7381,45.0679],[14.6718,45.0781],[14.6582,45.1215],[14.6805,45.1346],[14.6693,45.1571],[14.5969,45.1512],[14.6078,45.1711],[14.6329,45.1655],[14.5815,45.23],[14.6039,45.2247],[14.591,45.2388],[14.5541,45.2457],[14.5367,45.2364],[14.5508,45.2072],[14.5272,45.2252],[14.5467,45.2011],[14.5334,45.1989],[14.5464,45.1685],[14.522,45.1508],[14.5282,45.1242],[14.4753,45.1284],[14.4694,45.0989],[14.4309,45.0783],[14.5258,45.0155],[14.5788,45.0275],[14.62,45.0136],[14.6069,45.0273],[14.624,45.0403],[14.6244,45.0071],[14.627,44.9999]]],[[[15.2274,45.4283],[15.1562,45.4253],[15.0855,45.4674],[15.0862,45.4828],[14.9869,45.4967],[14.9315,45.5293],[14.9075,45.4771],[14.8176,45.4595],[14.7956,45.5033],[14.7206,45.5341],[14.6906,45.5266],[14.6903,45.5807],[14.5957,45.6271],[14.6079,45.6642],[14.57,45.6729],[14.535,45.6139],[14.5013,45.6078],[14.5005,45.5492],[14.4351,45.5095],[14.3228,45.4704],[14.2348,45.5056],[14.2076,45.4693],[14.1114,45.4823],[14.1072,45.4598],[14.2064,45.4008],[14.1825,45.3855],[14.2153,45.3273],[14.1938,45.3251],[14.1816,45.296],[14.2068,45.2169],[14.1956,45.165],[14.2312,45.1585],[14.281,45.3059],[14.3308,45.3561],[14.4815,45.3162],[14.5421,45.2778],[14.5603,45.2842],[14.5359,45.307],[14.5699,45.2921],[14.5813,45.279],[14.5647,45.282],[14.5625,45.2653],[14.6124,45.2178],[14.7402,45.1382],[14.847,45.1156],[14.8392,45.0965],[14.8813,45.0311],[14.8833,45.0577],[14.9275,45.0836],[14.943,45.0646],[15.0154,45.0689],[15.0168,45.1236],[14.9771,45.1543],[14.9849,45.2546],[14.9635,45.2773],[14.9868,45.288],[14.9878,45.3092],[15.0214,45.322],[15.0372,45.2999],[15.0969,45.2837],[15.1211,45.3064],[15.1781,45.3165],[15.227,45.4193],[15.2274,45.4283]]],[[[14.7655,44.8754],[14.735,44.873],[14.7755,44.8545],[14.7724,44.8712],[14.7655,44.8754]]],[[[14.7813,44.9048],[14.8385,44.884],[14.8188,44.9149],[14.7687,44.9338],[14.78,44.9072],[14.7813,44.9048]]],[[[14.2568,44.617],[14.2828,44.605],[14.2508,44.6495],[14.2658,44.6397],[14.2545,44.6594],[14.2888,44.6665],[14.2799,44.6895],[14.2389,44.6603],[14.2477,44.6357],[14.2321,44.6264],[14.2536,44.6195],[14.2568,44.617]]],[[[14.3063,44.7575],[14.3189,44.7917],[14.3037,44.7591],[14.3063,44.7575]]],[[[14.8427,44.6864],[14.7689,44.743],[14.8413,44.6854],[14.8427,44.6864]]],[[[14.7655,44.7986],[14.7372,44.8202],[14.7633,44.8402],[14.726,44.8526],[14.7226,44.8319],[14.6783,44.8447],[14.7267,44.7983],[14.6996,44.8092],[14.7076,44.7852],[14.6547,44.7913],[14.7003,44.7554],[14.7549,44.7513],[14.7411,44.7684],[14.8382,44.7013],[14.8694,44.7047],[14.7837,44.7853],[14.7655,44.7986]]],[[[14.4142,44.5672],[14.4601,44.545],[14.3956,44.6196],[14.3992,44.6841],[14.3402,44.7125],[14.3515,44.6452],[14.3931,44.6034],[14.3686,44.5624],[14.3919,44.5536],[14.4118,44.5704],[14.4142,44.5672]]],[[[14.3552,44.9999],[14.4172,44.9465],[14.3843,44.945],[14.4013,44.9206],[14.3908,44.902],[14.3453,44.9144],[14.3147,44.9511],[14.306,44.9414],[14.2987,44.906],[14.3219,44.8855],[14.3305,44.826],[14.369,44.8022],[14.4106,44.6684],[14.4843,44.6078],[14.5084,44.6085],[14.4946,44.6244],[14.5168,44.6088],[14.5167,44.6242],[14.5451,44.6308],[14.5034,44.6386],[14.5135,44.6634],[14.4772,44.6933],[14.4636,44.7266],[14.476,44.7556],[14.4475,44.786],[14.4702,44.7903],[14.4455,44.875],[14.4606,44.952],[14.4866,44.9551],[14.4688,44.9826],[14.4352,44.9778],[14.3965,45.0156],[14.3569,45.1029],[14.3714,45.1465],[14.3227,45.1753],[14.2728,45.1203],[14.3073,45.0683],[14.355,45.0469],[14.3513,45.003],[14.3552,44.9999]]],[[[14.8169,44.8363],[14.8406,44.8418],[14.8009,44.8515],[14.8172,44.8384],[14.8169,44.8363]]]]}},{"type":"Feature","properties":{"shapeName":"Lika-Senj","shapeISO":"HR-09"},"geometry":{"type":"MultiPolygon","coordinates":[[[[14.9155,44.5384],[14.9313,44.5465],[15.0808,44.4763],[15.0422,44.5192],[14.984,44.5346],[14.9094,44.6123],[14.8716,44.6082],[14.8789,44.5754],[14.7322,44.7039],[14.8977,44.5274],[14.9155,44.5384]]],[[[15.0168,45.1236],[15.0154,45.0689],[14.943,45.0646],[14.9275,45.0836],[14.8833,45.0577],[14.8962,44.9896],[14.9279,44.9514],[14.8821,44.8444],[14.8946,44.6999],[14.9619,44.6308],[14.9882,44.574],[15.1009,44.5138],[15.2772,44.3655],[15.2912,44.3607],[15.3258,44.4172],[15.5185,44.3557],[15.5679,44.298],[15.7547,44.2712],[15.8006,44.2819],[15.8263,44.3115],[15.8172,44.359],[15.768,44.3646],[15.7924,44.3892],[15.7765,44.4276],[15.9347,44.5042],[15.9995,44.4959],[16.0522,44.4311],[16.0515,44.468],[16.0776,44.4513],[16.1374,44.4628],[16.1411,44.4798],[16.0936,44.5345],[16.0307,44.5546],[16.0089,44.5829],[16.0526,44.5927],[16.0548,44.6256],[16.0316,44.6537],[15.9729,44.673],[15.9546,44.7112],[15.9324,44.7076],[15.8941,44.7494],[15.8349,44.7139],[15.7808,44.7502],[15.7287,44.8253],[15.7934,44.8466],[15.7602,44.8696],[15.7389,44.9349],[15.709,44.9176],[15.6606,44.9486],[15.5748,44.9279],[15.5363,44.9413],[15.5278,44.9224],[15.5725,44.8971],[15.555,44.8882],[15.518,44.9327],[15.4418,44.9349],[15.3799,45.009],[15.2001,45.1076],[15.1121,45.0895],[15.0462,45.1153],[15.0168,45.1236]]]]}},{"type":"Feature","properties":{"shapeName":"Zadar County","shapeISO":"HR-13"},"geometry":{"type":"MultiPolygon","coordinates":[[[[15.0597,44.02],[15.0869,44.0081],[15.0516,44.043],[15.0601,44.0239],[15.0597,44.02]]],[[[15.1173,44.0487],[15.0711,44.0835],[15.0771,44.052],[15.1677,43.9958],[15.1186,44.0427],[15.1173,44.0487]]],[[[15.5071,43.8457],[15.486,43.8607],[15.5001,43.8461],[15.5071,43.8457]]],[[[15.1936,43.9453],[15.2264,43.9209],[15.196,43.9468],[15.1936,43.9453]]],[[[15.2194,43.8757],[15.2238,43.8875],[15.2175,43.877],[15.2194,43.8757]]],[[[15.3283,43.9454],[15.3627,43.9101],[15.4551,43.8892],[15.3754,43.9676],[15.2519,44.015],[15.3282,43.9473],[15.3283,43.9454]]],[[[15.1173,44.1272],[15.063,44.1584],[15.0657,44.131],[15.1927,44.0362],[15.199,44.049],[15.2183,44.0337],[15.2121,44.0493],[15.2424,44.0097],[15.2603,44.0214],[15.1845,44.0941],[15.1202,44.1268],[15.1173,44.1272]]],[[[14.6535,44.3165],[14.5824,44.3518],[14.6636,44.3074],[14.6535,44.3165]]],[[[14.6827,44.4124],[14.6608,44.3951],[14.7272,44.3482],[14.6874,44.4126],[14.6827,44.4124]]],[[[14.7143,44.2704],[14.722,44.2841],[14.6862,44.2894],[14.7119,44.2733],[14.7143,44.2704]]],[[[14.7657,44.2903],[14.7384,44.2701],[14.7686,44.2555],[14.7638,44.2723],[14.7996,44.2692],[14.7759,44.2827],[14.7657,44.2903]]],[[[15.0234,44.1614],[15.0576,44.1408],[15.0194,44.1668],[15.0234,44.1614]]],[[[14.9452,44.1444],[14.8892,44.1749],[14.9375,44.1492],[14.9452,44.1444]]],[[[15.0346,44.136],[14.9421,44.202],[14.9719,44.1585],[15.0319,44.126],[15.0346,44.136]]],[[[15.1171,43.981],[15.0608,43.9998],[15.0096,44.0824],[14.9461,44.1029],[14.8831,44.1645],[14.8563,44.177],[14.8806,44.1404],[14.8455,44.1522],[14.8604,44.1353],[14.8257,44.1536],[14.8323,44.1649],[14.8185,44.1554],[14.9923,44.0564],[15.1027,43.9272],[15.2,43.865],[15.129,43.9216],[15.21,43.8876],[15.2235,43.9046],[15.1735,43.9254],[15.1213,43.9786],[15.1171,43.981]]],[[[15.2912,44.3607],[15.4084,44.3172],[15.4781,44.2679],[15.5258,44.2691],[15.5415,44.2585],[15.5222,44.248],[15.5282,44.227],[15.59,44.2014],[15.6296,44.1345],[15.6022,44.142],[15.5933,44.1802],[15.5541,44.1921],[15.5249,44.1759],[15.4704,44.2037],[15.5363,44.2192],[15.5213,44.2449],[15.4015,44.2581],[15.2763,44.3326],[15.2586,44.3239],[15.3063,44.2878],[15.2816,44.2794],[15.299,44.2483],[15.2097,44.2922],[15.2136,44.2801],[15.1909,44.2816],[15.2136,44.2568],[15.1859,44.2387],[15.1302,44.2784],[15.1112,44.2593],[15.168,44.2275],[15.1425,44.1952],[15.4557,43.923],[15.5543,43.8711],[15.5833,43.8831],[15.6315,43.8487],[15.6253,43.8598],[15.6822,43.8875],[15.734,43.8613],[15.7506,43.8875],[15.7364,43.8978],[15.7772,43.9212],[15.7718,43.9501],[15.8238,43.9414],[15.7943,43.9784],[15.8387,43.9986],[15.8296,44.0181],[15.8536,44.048],[15.7849,44.0804],[15.7948,44.0882],[15.8277,44.0761],[15.9638,44.1903],[15.9914,44.1523],[16.0862,44.1182],[16.1325,44.139],[16.1395,44.214],[16.219,44.2198],[16.1857,44.3059],[16.2192,44.3483],[16.1312,44.3789],[16.1196,44.3967],[16.1722,44.4029],[16.1435,44.4216],[16.1389,44.454],[16.0776,44.4513],[16.0577,44.4701],[16.0522,44.4311],[16.0193,44.4815],[15.9744,44.5042],[15.9347,44.5042],[15.7765,44.4276],[15.7924,44.3892],[15.768,44.3646],[15.8172,44.359],[15.8263,44.3252],[15.7811,44.2749],[15.5679,44.298],[15.5185,44.3557],[15.3258,44.4172],[15.2926,44.3797],[15.2912,44.3607]]],[[[14.9381,44.1688],[14.9044,44.1899],[14.9323,44.1738],[14.9381,44.1688]]],[[[14.8384,44.2262],[14.8921,44.1978],[14.9114,44.2116],[14.7897,44.2621],[14.8413,44.1994],[14.8137,44.2361],[14.8326,44.2297],[14.8384,44.2262]]],[[[14.8718,44.4664],[14.8473,44.4872],[14.8642,44.4694],[14.8718,44.4664]]],[[[15.0345,44.2968],[15.1357,44.29],[15.0297,44.3287],[15.0241,44.3047],[15.0345,44.2968]]],[[[14.8523,44.3791],[14.8688,44.3704],[14.8517,44.3839],[14.8523,44.3791]]],[[[14.7656,44.4112],[14.7768,44.3791],[14.7438,44.3681],[14.817,44.3416],[14.7934,44.3848],[14.8085,44.4046],[14.76,44.4163],[14.7656,44.4112]]],[[[14.8848,44.4547],[14.9689,44.4015],[14.8895,44.4562],[14.8848,44.4547]]],[[[14.8977,44.5274],[14.9211,44.5006],[14.8997,44.4973],[14.9079,44.4831],[14.9845,44.4536],[15.0385,44.3925],[15.0822,44.3977],[15.1161,44.3787],[15.0882,44.3603],[15.1133,44.317],[15.1764,44.2891],[15.1323,44.3295],[15.2232,44.3025],[15.2074,44.3199],[15.2362,44.3188],[15.1826,44.359],[15.256,44.3216],[15.247,44.3496],[15.1863,44.3759],[15.1156,44.4416],[15.043,44.4797],[15.0608,44.4335],[14.9155,44.5384],[14.8977,44.5274]]]]}},{"type":"Feature","properties":{"shapeName":"Šibenik-Knin","shapeISO":"HR-15"},"geometry":{"type":"MultiPolygon","coordinates":[[[[15.2523,43.8154],[15.2637,43.8234],[15.2305,43.8327],[15.2493,43.8169],[15.2523,43.8154]]],[[[15.5466,43.8491],[15.5347,43.8649],[15.5413,43.8524],[15.5466,43.8491]]],[[[15.2931,43.9325],[15.3174,43.916],[15.2941,43.9341],[15.2931,43.9325]]],[[[15.6445,43.7673],[15.6678,43.7666],[15.5973,43.8351],[15.5893,43.8217],[15.5658,43.8331],[15.6423,43.7697],[15.6445,43.7673]]],[[[15.2931,43.887],[15.2524,43.8844],[15.3732,43.82],[15.3198,43.8847],[15.3152,43.8719],[15.2847,43.8848],[15.2984,43.8844],[15.2931,43.887]]],[[[15.8202,43.6968],[15.8695,43.6604],[15.8456,43.7054],[15.8192,43.7002],[15.8202,43.6968]]],[[[15.7965,43.7184],[15.8074,43.7243],[15.7829,43.7436],[15.7882,43.7256],[15.7965,43.7184]]],[[[15.3729,43.7431],[15.3834,43.7565],[15.3656,43.7611],[15.3704,43.744],[15.3729,43.7431]]],[[[15.4687,43.732],[15.4829,43.7223],[15.4728,43.7328],[15.4687,43.732]]],[[[15.4687,43.7112],[15.5203,43.687],[15.4704,43.7117],[15.4687,43.7112]]],[[[15.6444,43.6493],[15.7308,43.6296],[15.6006,43.6784],[15.6419,43.6491],[15.6444,43.6493]]],[[[15.6446,43.7001],[15.6932,43.6784],[15.6372,43.7094],[15.6446,43.7001]]],[[[15.742,43.7053],[15.7445,43.6896],[15.7773,43.6858],[15.7438,43.7056],[15.742,43.7053]]],[[[15.7731,43.7059],[15.7551,43.7335],[15.7637,43.7133],[15.7731,43.7059]]],[[[15.6831,43.7178],[15.6705,43.7184],[15.7225,43.67],[15.7284,43.6914],[15.6885,43.7151],[15.6831,43.7178]]],[[[15.3246,43.7696],[15.3636,43.7621],[15.3128,43.7748],[15.3246,43.7696]]],[[[15.5543,43.8711],[15.6834,43.8168],[15.6808,43.797],[15.6144,43.8228],[15.6941,43.7648],[15.7824,43.7582],[15.8502,43.7215],[15.8799,43.7293],[15.8511,43.7626],[15.9063,43.7201],[15.859,43.7241],[15.8801,43.6951],[15.9261,43.6719],[15.944,43.6739],[15.9386,43.6927],[15.9574,43.686],[15.9285,43.6724],[15.9506,43.6402],[15.9024,43.6485],[15.9746,43.6306],[15.9127,43.6282],[15.9272,43.6123],[15.919,43.5841],[15.9333,43.5865],[15.9162,43.5741],[15.9435,43.5704],[15.9244,43.5548],[15.9608,43.5403],[15.961,43.5222],[15.9947,43.538],[15.9808,43.535],[15.9905,43.518],[15.9507,43.5073],[15.9698,43.4939],[15.9867,43.5066],[16.0004,43.4868],[16.0206,43.5088],[16.061,43.5102],[16.0388,43.5361],[16.0914,43.5379],[16.046,43.5943],[16.0759,43.6156],[16.1021,43.6106],[16.1538,43.6958],[16.2312,43.6709],[16.2505,43.6975],[16.3327,43.6896],[16.353,43.7131],[16.3352,43.7322],[16.3607,43.7501],[16.339,43.7681],[16.4394,43.8138],[16.3413,43.88],[16.352,43.9223],[16.4074,43.9167],[16.4139,43.9481],[16.5447,43.9731],[16.5077,44.0254],[16.4367,44.0307],[16.4277,44.0832],[16.3692,44.0821],[16.3161,44.1161],[16.3097,44.1443],[16.219,44.2198],[16.1395,44.214],[16.1325,44.139],[16.0862,44.1182],[15.9914,44.1523],[15.9638,44.1903],[15.8277,44.0761],[15.7849,44.0804],[15.8538,44.0418],[15.8296,44.0181],[15.8387,43.9986],[15.7943,43.9784],[15.8238,43.9414],[15.7718,43.9501],[15.7772,43.9212],[15.7364,43.8978],[15.7506,43.8949],[15.7372,43.8629],[15.6822,43.8875],[15.6253,43.8598],[15.6367,43.8483],[15.5833,43.8831],[15.5542,43.8721],[15.5543,43.8711]]],[[[15.2931,43.8369],[15.2511,43.8625],[15.2631,43.8693],[15.2214,43.8753],[15.3037,43.8005],[15.4606,43.7347],[15.3284,43.817],[15.2931,43.8369]]]]}},{"type":"Feature","properties":{"shapeName":"Split-Dalmatia","shapeISO":"HR-17"},"geometry":{"type":"MultiPolygon","coordinates":[[[[16.0234,42.9732],[16.0002,42.9907],[15.9957,42.9534],[16.0196,42.9599],[16.0234,42.9732]]],[[[15.7473,43.0315],[15.7269,43.0191],[15.7692,43.0316],[15.7512,43.0343],[15.7473,43.0315]]],[[[16.172,43.0787],[16.049,43.054],[16.093,43.0365],[16.0666,43.006],[16.2156,43.0166],[16.2582,43.0603],[16.2433,43.0768],[16.1874,43.0593],[16.1987,43.0753],[16.1753,43.0811],[16.172,43.0787]]],[[[16.2506,43.4942],[16.2032,43.4967],[16.2464,43.479],[16.2726,43.4936],[16.3922,43.4889],[16.2373,43.512],[16.2591,43.507],[16.2557,43.4925],[16.2506,43.4942]]],[[[16.8749,43.2808],[16.8994,43.3144],[16.8403,43.343],[16.8296,43.3305],[16.7912,43.3398],[16.8115,43.352],[16.7432,43.3619],[16.7349,43.3469],[16.7354,43.3621],[16.5489,43.3883],[16.4329,43.3917],[16.464,43.3497],[16.4337,43.3448],[16.4492,43.3252],[16.4083,43.3328],[16.4107,43.3153],[16.4656,43.308],[16.5003,43.2777],[16.634,43.2553],[16.8731,43.2809],[16.8749,43.2808]]],[[[16.2046,43.3979],[16.2097,43.3827],[16.3988,43.3295],[16.3288,43.3953],[16.3134,43.3796],[16.3182,43.3957],[16.2518,43.4141],[16.2069,43.4145],[16.2076,43.3982],[16.2046,43.3979]]],[[[16.172,43.451],[16.1344,43.4593],[16.1455,43.4485],[16.1082,43.4301],[16.1765,43.4421],[16.172,43.451]]],[[[16.0917,43.4481],[16.0531,43.4485],[16.0982,43.4461],[16.0917,43.4481]]],[[[16.7237,43.0944],[16.6605,43.0881],[16.7401,43.0855],[16.7268,43.0954],[16.7237,43.0944]]],[[[16.3624,43.1671],[16.3304,43.1671],[16.4036,43.1562],[16.3674,43.1648],[16.3624,43.1671]]],[[[16.5235,43.2261],[16.599,43.1844],[16.5678,43.1772],[16.4755,43.2099],[16.4172,43.1883],[16.3664,43.1948],[16.4482,43.1617],[16.6585,43.1216],[17.1968,43.1248],[16.8848,43.1479],[16.8769,43.1615],[16.7195,43.1566],[16.6673,43.1818],[16.6997,43.179],[16.6527,43.2178],[16.5801,43.205],[16.5737,43.233],[16.5239,43.2277],[16.5235,43.2261]]],[[[16.0131,43.5025],[16.0145,43.4849],[16.1139,43.4709],[16.1289,43.4781],[16.1105,43.4886],[16.1772,43.4924],[16.11,43.5137],[16.1308,43.5202],[16.2082,43.5101],[16.3492,43.5512],[16.4701,43.537],[16.3879,43.5077],[16.532,43.5039],[16.6394,43.437],[16.6944,43.4425],[16.75,43.4073],[16.8862,43.4011],[17.1129,43.2074],[17.2608,43.1509],[17.3538,43.0897],[17.3984,43.1158],[17.3387,43.1573],[17.4171,43.1507],[17.4491,43.1775],[17.43,43.1807],[17.4278,43.2176],[17.3423,43.2597],[17.2857,43.3308],[17.257,43.4028],[17.2944,43.4428],[17.2782,43.4721],[17.223,43.4977],[17.1552,43.4926],[17.0199,43.5689],[16.9336,43.6362],[16.8939,43.6936],[16.8261,43.7284],[16.7999,43.763],[16.7523,43.7701],[16.7191,43.8072],[16.7103,43.8549],[16.5411,43.9741],[16.4139,43.9481],[16.4074,43.9167],[16.352,43.9223],[16.3413,43.88],[16.4394,43.8138],[16.339,43.7681],[16.3607,43.7501],[16.3352,43.7322],[16.353,43.7131],[16.3327,43.6896],[16.2505,43.6975],[16.2312,43.6709],[16.1538,43.6958],[16.1021,43.6106],[16.0759,43.6156],[16.046,43.5943],[16.0914,43.5379],[16.0388,43.5361],[16.061,43.5102],[16.0194,43.5063],[16.0131,43.5025]]]]}},{"type":"Feature","properties":{"shapeName":"Dubrovnik-Neretva","shapeISO":"HR-19"},"geometry":{"type":"MultiPolygon","coordinates":[[[[18.0131,42.6804],[17.9863,42.6755],[18.0176,42.6726],[18.0131,42.6804]]],[[[17.9739,42.6777],[17.9478,42.6976],[17.9237,42.6894],[17.9535,42.6812],[17.9739,42.6777]]],[[[17.8971,42.7052],[17.9095,42.6988],[17.9164,42.7201],[17.8289,42.7562],[17.8754,42.7184],[17.8971,42.7052]]],[[[17.8374,42.7279],[17.7881,42.7538],[17.8332,42.7306],[17.8374,42.7279]]],[[[16.4901,42.7486],[16.5349,42.7659],[16.5078,42.7737],[16.4872,42.7499],[16.4901,42.7486]]],[[[16.8749,42.7717],[16.8354,42.7772],[16.8119,42.7441],[16.8416,42.7229],[16.8885,42.7369],[16.8891,42.7235],[16.9432,42.7665],[16.8783,42.7735],[16.8749,42.7717]]],[[[16.8221,42.7661],[16.7979,42.7643],[16.8148,42.7638],[16.8221,42.7661]]],[[[16.7877,42.7586],[16.7922,42.7783],[16.7886,42.7606],[16.7877,42.7586]]],[[[17.6489,42.8891],[17.6956,42.8672],[17.7086,42.8836],[17.7081,42.857],[17.6955,42.86],[17.7452,42.8345],[17.5261,42.9244],[17.5314,42.9034],[17.4693,42.9146],[17.4402,42.9534],[17.3023,43.0024],[17.1708,43.025],[17.0766,43.0194],[17.0007,43.0468],[17.0349,43.0243],[17.0109,43.005],[17.1357,42.9745],[17.2181,42.9811],[17.3623,42.9135],[17.419,42.911],[17.4544,42.8925],[17.4306,42.8753],[17.4471,42.8679],[17.7423,42.7971],[17.7604,42.7614],[17.7689,42.7782],[17.6973,42.8354],[17.7814,42.7872],[17.7961,42.8072],[17.8436,42.8042],[17.866,42.7765],[17.8879,42.7875],[17.8774,42.763],[17.9842,42.705],[18.0451,42.6845],[18.0448,42.7017],[18.0732,42.6689],[18.1369,42.6754],[18.0786,42.6667],[18.087,42.6531],[18.0596,42.6637],[18.0597,42.6497],[18.1803,42.6145],[18.207,42.622],[18.2304,42.6],[18.208,42.5821],[18.2335,42.5585],[18.5339,42.3924],[18.511,42.4065],[18.5242,42.4205],[18.4338,42.4841],[18.4347,42.5676],[18.3643,42.6156],[18.2501,42.6035],[17.9991,42.7738],[17.8914,42.8098],[17.9002,42.8325],[17.8699,42.8468],[17.8442,42.9025],[17.809,42.9172],[17.7858,42.8918],[17.7513,42.913],[17.6757,42.9187],[17.6489,42.8891]]],[[[17.5782,42.7226],[17.7542,42.6926],[17.6684,42.7364],[17.3705,42.7909],[17.3865,42.8037],[17.3172,42.7859],[17.3842,42.7564],[17.3434,42.7817],[17.5752,42.7219],[17.5782,42.7226]]],[[[16.8751,42.9593],[16.6938,42.9942],[16.6276,42.9848],[16.7175,42.9624],[16.6377,42.9366],[16.6639,42.9149],[16.6678,42.9298],[16.7753,42.9034],[16.8575,42.9098],[16.8487,42.8974],[16.8643,42.8934],[16.9761,42.9278],[17.1202,42.9071],[17.2023,42.9172],[17.1603,42.9279],[17.1356,42.9633],[17.0477,42.9803],[16.8808,42.9603],[16.8751,42.9593]]],[[[17.3538,43.0897],[17.408,43.0404],[17.423,43.063],[17.4349,43.0543],[17.4242,43.0303],[17.4592,43.0368],[17.4405,43.025],[17.4609,43.0246],[17.4768,42.9844],[17.5374,42.9411],[17.6133,42.9413],[17.7103,42.9732],[17.6388,43.0891],[17.4491,43.1775],[17.4171,43.1507],[17.3387,43.1573],[17.3984,43.1158],[17.361,43.0963],[17.3538,43.0897]]]]}}]}
